[
    {
        "Altitude(m)": 553860.0030203332,
        "Argument of Periapsis(deg)": 0.006622991110713501,
        "Eccentricity": 0.0,
        "Inclination(deg)": 53.0,
        "Latitude(deg)": 3.4930086641866622,
        "Longitude(deg)": 146.60516745903223,
        "Mean Anomaly(deg)": 175.54619286757756,
        "RAAN(deg)": 69.99014336852801,
        "Satellite Name": "Starlink Shell 1 318",
        "Satellite Number": 318,
        "Semi-Major Axis(m)": 6931778.249405717,
        "Time(s)": 190
    },
    {
        "Altitude(m)": 553907.2829639773,
        "Argument of Periapsis(deg)": 0.0069715695902247375,
        "Eccentricity": 0.0,
        "Inclination(deg)": 53.0,
        "Latitude(deg)": 2.9894824741286268,
        "Longitude(deg)": 146.9417778303203,
        "Mean Anomaly(deg)": 176.17302407113434,
        "RAAN(deg)": 69.98962459845053,
        "Satellite Name": "Starlink Shell 1 318",
        "Satellite Number": 318,
        "Semi-Major Axis(m)": 6931778.249405717,
        "Time(s)": 200
    },
    {
        "Altitude(m)": 553957.3826438274,
        "Argument of Periapsis(deg)": 0.007320148069735974,
        "Eccentricity": 0.0,
        "Inclination(deg)": 53.0,
        "Latitude(deg)": 2.485829547622201,
        "Longitude(deg)": 147.27803796356685,
        "Mean Anomaly(deg)": 176.79985527469105,
        "RAAN(deg)": 69.98910582837307,
        "Satellite Name": "Starlink Shell 1 318",
        "Satellite Number": 318,
        "Semi-Major Axis(m)": 6931778.249405717,
        "Time(s)": 210
    },
    {
        "Altitude(m)": 554010.3014301178,
        "Argument of Periapsis(deg)": 0.007668726549247212,
        "Eccentricity": 0.0,
        "Inclination(deg)": 53.0,
        "Latitude(deg)": 1.982072970365705,
        "Longitude(deg)": 147.61400578565278,
        "Mean Anomaly(deg)": 177.42668647824772,
        "RAAN(deg)": 69.9885870582956,
        "Satellite Name": "Starlink Shell 1 318",
        "Satellite Number": 318,
        "Semi-Major Axis(m)": 6931778.249405717,
        "Time(s)": 220
    },
    {
        "Altitude(m)": 554066.037340301,
        "Argument of Periapsis(deg)": 0.00801730502875845,
        "Eccentricity": 0.0,
        "Inclination(deg)": 53.0,
        "Latitude(deg)": 1.478235766413243,
        "Longitude(deg)": 147.94973909312708,
        "Mean Anomaly(deg)": 178.05351768180446,
        "RAAN(deg)": 69.98806828821812,
        "Satellite Name": "Starlink Shell 1 318",
        "Satellite Number": 318,
        "Semi-Major Axis(m)": 6931778.249405717,
        "Time(s)": 230
    },
    {
        "Altitude(m)": 554124.5870372945,
        "Argument of Periapsis(deg)": 0.008365883508269684,
        "Eccentricity": 0.0,
        "Inclination(deg)": 53.0,
        "Latitude(deg)": 0.9743409099722113,
        "Longitude(deg)": 148.28529608181958,
        "Mean Anomaly(deg)": 178.68034888536116,
        "RAAN(deg)": 69.98754951814065,
        "Satellite Name": "Starlink Shell 1 318",
        "Satellite Number": 318,
        "Semi-Major Axis(m)": 6931778.249405717,
        "Time(s)": 240
    },
    {
        "Altitude(m)": 554185.9458283599,
        "Argument of Periapsis(deg)": 0.008714461987780921,
        "Eccentricity": 0.0,
        "Inclination(deg)": 53.0,
        "Latitude(deg)": 0.4704113371550552,
        "Longitude(deg)": 148.62073436354564,
        "Mean Anomaly(deg)": 179.30718008891785,
        "RAAN(deg)": 69.98703074806318,
        "Satellite Name": "Starlink Shell 1 318",
        "Satellite Number": 318,
        "Semi-Major Axis(m)": 6931778.249405717,
        "Time(s)": 250
    },
    {
        "Altitude(m)": 554250.1076646892,
        "Argument of Periapsis(deg)": 0.009063040467292158,
        "Eccentricity": 0.0,
        "Inclination(deg)": 53.0,
        "Latitude(deg)": -0.033530042305654734,
        "Longitude(deg)": 148.95611149565664,
        "Mean Anomaly(deg)": 179.9340112924746,
        "RAAN(deg)": 69.9865119779857,
        "Satellite Name": "Starlink Shell 1 318",
        "Satellite Number": 318,
        "Semi-Major Axis(m)": 6931778.249405717,
        "Time(s)": 260
    },
    {
        "Altitude(m)": 554317.0651416606,
        "Argument of Periapsis(deg)": 0.009411618946803396,
        "Eccentricity": 0.0,
        "Inclination(deg)": 53.0,
        "Latitude(deg)": -0.537460333366274,
        "Longitude(deg)": 149.29148551056997,
        "Mean Anomaly(deg)": 180.56084249603134,
        "RAAN(deg)": 69.98599320790824,
        "Satellite Name": "Starlink Shell 1 318",
        "Satellite Number": 318,
        "Semi-Major Axis(m)": 6931778.249405717,
        "Time(s)": 270
    },
    {
        "Altitude(m)": 554386.8094997642,
        "Argument of Periapsis(deg)": 0.009760197426314633,
        "Eccentricity": 0.0,
        "Inclination(deg)": 53.0,
        "Latitude(deg)": -1.0413566439921087,
        "Longitude(deg)": 149.62691393241388,
        "Mean Anomaly(deg)": 181.18767369958806,
        "RAAN(deg)": 69.98547443783076,
        "Satellite Name": "Starlink Shell 1 318",
        "Satellite Number": 318,
        "Semi-Major Axis(m)": 6931778.249405717,
        "Time(s)": 280
    },
    {
        "Altitude(m)": 554459.3306262185,
        "Argument of Periapsis(deg)": 0.01010877590582587,
        "Eccentricity": 0.0,
        "Inclination(deg)": 53.0,
        "Latitude(deg)": -1.545196073481011,
        "Longitude(deg)": 149.96245430654025,
        "Mean Anomaly(deg)": 181.81450490314475,
        "RAAN(deg)": 69.98495566775328,
        "Satellite Name": "Starlink Shell 1 318",
        "Satellite Number": 318,
        "Semi-Major Axis(m)": 6931778.249405717,
        "Time(s)": 290
    },
    {
        "Altitude(m)": 554534.6170572591,
        "Argument of Periapsis(deg)": 0.010457354385337106,
        "Eccentricity": 0.0,
        "Inclination(deg)": 53.0,
        "Latitude(deg)": -2.0489557007771313,
        "Longitude(deg)": 150.2981647290405,
        "Mean Anomaly(deg)": 182.44133610670147,
        "RAAN(deg)": 69.98443689767582,
        "Satellite Name": "Starlink Shell 1 318",
        "Satellite Number": 318,
        "Semi-Major Axis(m)": 6931778.249405717,
        "Time(s)": 300
    },
    {
        "Altitude(m)": 554612.6559811045,
        "Argument of Periapsis(deg)": 0.010805932864848343,
        "Eccentricity": 0.0,
        "Inclination(deg)": 53.0,
        "Latitude(deg)": -2.552612572761879,
        "Longitude(deg)": 150.63410286339894,
        "Mean Anomaly(deg)": 183.0681673102582,
        "RAAN(deg)": 69.98391812759834,
        "Satellite Name": "Starlink Shell 1 318",
        "Satellite Number": 318,
        "Semi-Major Axis(m)": 6931778.249405717,
        "Time(s)": 310
    },
    {
        "Altitude(m)": 554693.4332415911,
        "Argument of Periapsis(deg)": 0.01115451134435958,
        "Eccentricity": 0.0,
        "Inclination(deg)": 53.0,
        "Latitude(deg)": -3.0561436925148895,
        "Longitude(deg)": 150.9703264700372,
        "Mean Anomaly(deg)": 183.69499851381485,
        "RAAN(deg)": 69.98339935752087,
        "Satellite Name": "Starlink Shell 1 318",
        "Satellite Number": 318,
        "Semi-Major Axis(m)": 6931778.249405717,
        "Time(s)": 320
    },
    {
        "Altitude(m)": 554776.9333425041,
        "Argument of Periapsis(deg)": 0.011503089823870818,
        "Eccentricity": 0.0,
        "Inclination(deg)": 53.0,
        "Latitude(deg)": -3.559526007531379,
        "Longitude(deg)": 151.30689393588398,
        "Mean Anomaly(deg)": 184.32182971737163,
        "RAAN(deg)": 69.98288058744339,
        "Satellite Name": "Starlink Shell 1 318",
        "Satellite Number": 318,
        "Semi-Major Axis(m)": 6931778.249405717,
        "Time(s)": 330
    },
    {
        "Altitude(m)": 554863.1394525473,
        "Argument of Periapsis(deg)": 0.011851668303382053,
        "Eccentricity": 0.0,
        "Inclination(deg)": 53.0,
        "Latitude(deg)": -4.06273639788255,
        "Longitude(deg)": 151.64386329110422,
        "Mean Anomaly(deg)": 184.94866092092826,
        "RAAN(deg)": 69.98236181736593,
        "Satellite Name": "Starlink Shell 1 318",
        "Satellite Number": 318,
        "Semi-Major Axis(m)": 6931778.249405717,
        "Time(s)": 340
    },
    {
        "Altitude(m)": 554952.0334109878,
        "Argument of Periapsis(deg)": 0.012200246782893292,
        "Eccentricity": 0.0,
        "Inclination(deg)": 53.0,
        "Latitude(deg)": -4.565751664312925,
        "Longitude(deg)": 151.98129273874164,
        "Mean Anomaly(deg)": 185.57549212448504,
        "RAAN(deg)": 69.98184304728845,
        "Satellite Name": "Starlink Shell 1 318",
        "Satellite Number": 318,
        "Semi-Major Axis(m)": 6931778.249405717,
        "Time(s)": 350
    },
    {
        "Altitude(m)": 555043.5957340002,
        "Argument of Periapsis(deg)": 0.012548825262404526,
        "Eccentricity": 0.0,
        "Inclination(deg)": 53.0,
        "Latitude(deg)": -5.068548516258957,
        "Longitude(deg)": 152.31924118440628,
        "Mean Anomaly(deg)": 186.2023233280418,
        "RAAN(deg)": 69.98132427721097,
        "Satellite Name": "Starlink Shell 1 318",
        "Satellite Number": 318,
        "Semi-Major Axis(m)": 6931778.249405717,
        "Time(s)": 360
    },
    {
        "Altitude(m)": 555137.8056216271,
        "Argument of Periapsis(deg)": 0.012897403741915765,
        "Eccentricity": 0.0,
        "Inclination(deg)": 53.0,
        "Latitude(deg)": -5.57110355977802,
        "Longitude(deg)": 152.6577672531424,
        "Mean Anomaly(deg)": 186.82915453159842,
        "RAAN(deg)": 69.98080550713351,
        "Satellite Name": "Starlink Shell 1 318",
        "Satellite Number": 318,
        "Semi-Major Axis(m)": 6931778.249405717,
        "Time(s)": 370
    }
]